NORAD_CAT_ID,OBJECT_NAME,OBJECT_TYPE,EPOCH,MEAN_MOTION,ECCENTRICITY,INCLINATION,RA_OF_ASC_NODE,ARG_OF_PERICENTER,MEAN_ANOMALY,BSTAR,MEAN_MOTION_DOT,MEAN_MOTION_DDOT,TLE_LINE0,TLE_LINE1,TLE_LINE2,SEMIMAJOR_AXIS,PERIOD,APOGEE,PERIGEE,DECAYED
54203.0,STARLINK-5247,PAYLOAD,2023-01-24 06:00:00,15.12142257,0.0001252999999999,53.2115,73.5713,86.8145,242.1377,-0.074488,-0.01192073,0.0,0 STARLINK-5247,1 54203U 22141AY  23024.25001157 -.01192073  00000-0 -74488-1 0  9993,2 54203  53.2115  73.5713 0001253  86.8145 242.1377 15.12142257 14069,6907.805,95.229,530.536,528.805,0.0
54203.0,STARLINK-5247,PAYLOAD,2023-01-24 22:00:00,15.10463848,0.0001153,53.2114,70.5661,80.092,277.9725,-0.072134,-0.0110834,0.0,0 STARLINK-5247,1 54203U 22141AY  23024.91667824 -.01108340  00000-0 -72134-1 0  9995,2 54203  53.2114  70.5661 0001153  80.0920 277.9725 15.10463848 14167,6912.920999999999,95.335,535.5830000000001,533.989,0.0
54203.0,STARLINK-5247,PAYLOAD,2023-01-25 14:00:01,15.0881886,0.0001751,53.2131,67.5706,74.3863,308.8575,0.0019531,0.00030915,0.0,0 STARLINK-5247,1 54203U 22141AY  23025.58334491  .00030915  00000-0  19531-2 0  9992,2 54203  53.2131  67.5706 0001751  74.3863 308.8575 15.08818860 14261,6917.945,95.439,541.021,538.599,0.0
54203.0,STARLINK-5247,PAYLOAD,2023-01-25 22:00:00,15.08835982,0.0001688,53.2143,66.0721,84.8643,309.9774,-0.00057767,-9.469e-05,0.0,0 STARLINK-5247,1 54203U 22141AY  23025.91667824 -.00009469  00000-0 -57767-3 0  9994,2 54203  53.2143  66.0721 0001688  84.8643 309.9774 15.08835982  1304,6917.893,95.438,540.925,538.59,0.0
54203.0,STARLINK-5247,PAYLOAD,2023-01-26 06:00:00,15.08854104,0.0001771999999999,53.2147,64.5763,86.9116,319.5133,-0.001964,-0.00031422,0.0,0 STARLINK-5247,1 54203U 22141AY  23026.25001157 -.00031422  00000-0 -19640-2 0  9994,2 54203  53.2147  64.5763 0001772  86.9116 319.5133 15.08854104 14362,6917.837,95.437,540.928,538.476,0.0
54203.0,STARLINK-5247,PAYLOAD,2023-01-26 14:00:01,15.08812454,0.0001754999999999,53.2146,63.0807,85.1014,332.9744,0.00030246,4.525e-05,0.0,0 STARLINK-5247,1 54203U 22141AY  23026.58334491  .00004525  00000-0  30246-3 0  9998,2 54203  53.2146  63.0807 0001755  85.1014 332.9744 15.08812454  1302,6917.965,95.439,541.044,538.615,0.0
54203.0,STARLINK-5247,PAYLOAD,2023-01-26 22:00:00,15.08791393,0.0001743,53.2149,61.5824,96.0916,333.5558,0.0037213999999999,0.00059358,0.0,0 STARLINK-5247,1 54203U 22141AY  23026.91667824  .00059358  00000-0  37214-2 0  9999,2 54203  53.2149  61.5824 0001743  96.0916 333.5558 15.08791393 14465,6918.029,95.441,541.1,538.688,0.0
54203.0,STARLINK-5247,PAYLOAD,2023-01-27 14:00:01,15.0880126,0.0001606,53.2151,58.5912,87.6056,5.1962,0.0023204,0.00036795,0.0,0 STARLINK-5247,1 54203U 22141AY  23027.58334491  .00036795  00000-0  23204-2 0  9998,2 54203  53.2151  58.5912 0001606  87.6056   5.1962 15.08801260 14568,6917.999,95.44,540.975,538.753,0.0
54203.0,STARLINK-5247,PAYLOAD,2023-01-27 22:00:00,15.08800023,0.000158,53.2154,57.0931,97.3413,7.0323,0.0035864,0.0005719,0.0,0 STARLINK-5247,1 54203U 22141AY  23027.91667824  .00057190  00000-0  35864-2 0  9991,2 54203  53.2154  57.0931 0001580  97.3413   7.0323 15.08800023  1308,6918.003000000001,95.44,540.961,538.775,0.0
54203.0,STARLINK-5247,PAYLOAD,2023-01-28 14:00:01,15.08821421,0.0001597,53.2153,54.1019,84.5472,43.0024,0.00186,0.00029423,0.0,0 STARLINK-5247,1 54203U 22141AY  23028.58334491  .00029423  00000-0  18600-2 0  9993,2 54203  53.2153  54.1019 0001597  84.5472  43.0024 15.08821421 14715,6917.937,95.439,540.907,538.697,0.0
54203.0,STARLINK-5247,PAYLOAD,2023-01-28 22:00:00,15.08813852,0.0001561,53.2155,52.604,94.6032,44.5366,0.0035357,0.00056393,0.0,0 STARLINK-5247,1 54203U 22141AY  23028.91667824  .00056393  00000-0  35357-2 0  9993,2 54203  53.2155  52.6040 0001561  94.6032  44.5366 15.08813852  1304,6917.96,95.439,540.905,538.745,0.0
54203.0,STARLINK-5247,PAYLOAD,2023-01-29 02:09:20,15.08829854,0.0001713,53.2162,51.8271,98.3245,261.7942,7.881e-05,9.66e-06,0.0,0 STARLINK-5247,1 54203U 22141AY  23029.08982013  .00000966  00000-0  78810-4 0  9990,2 54203  53.2162  51.8271 0001713  98.3245 261.7942 15.08829854 14794,6917.911,95.438,540.961,538.591,0.0
54203.0,STARLINK-5247,PAYLOAD,2023-01-29 18:03:11,15.08832013,0.000176,53.2165,48.8535,100.4701,259.6489,7.783e-05,9.51e-06,0.0,0 STARLINK-5247,1 54203U 22141AY  23029.75222096  .00000951  00000-0  77830-4 0  9997,2 54203  53.2165  48.8535 0001760 100.4701 259.6489 15.08832013 14669,6917.905,95.438,540.987,538.552,0.0
54203.0,STARLINK-5247,PAYLOAD,2023-01-30 08:21:40,15.08838101,0.0002004,53.217,46.1771,105.7683,254.353,3.169e-05,2.16e-06,0.0,0 STARLINK-5247,1 54203U 22141AY  23030.34838158  .00000216  00000-0  31690-4 0  9994,2 54203  53.2170  46.1771 0002004 105.7683 254.3530 15.08838101 14985,6917.886,95.438,541.138,538.365,0.0
54203.0,STARLINK-5247,PAYLOAD,2023-01-30 14:43:12,15.08844367,0.0001664,53.2165,44.9877,100.6869,259.431,4.9673e-05,5.03e-06,0.0,0 STARLINK-5247,1 54203U 22141AY  23030.61333668  .00000503  00000-0  49673-4 0  9999,2 54203  53.2165  44.9877 0001664 100.6869 259.4310 15.08844367 14795,6917.867,95.437,540.883,538.581,0.0
54203.0,STARLINK-5247,PAYLOAD,2023-01-31 09:47:49,15.08845901,0.0001702,53.2173,41.4189,97.9786,262.1399,6.6698e-05,7.74e-06,0.0,0 STARLINK-5247,1 54203U 22141AY  23031.40821572  .00000774  00000-0  66698-4 0  9999,2 54203  53.2173  41.4189 0001702  97.9786 262.1399 15.08845901 15144,6917.862,95.437,540.905,538.55,0.0
54203.0,STARLINK-5247,PAYLOAD,2023-01-31 17:44:46,15.08837119,0.0001909,53.2179,39.9326,91.4221,268.6989,2.1547e-05,5.5e-07,0.0,0 STARLINK-5247,1 54203U 22141AY  23031.73942357  .00000055  00000-0  21547-4 0  9996,2 54203  53.2179  39.9326 0001909  91.4221 268.6989 15.08837119 15190,6917.889,95.438,541.075,538.434,0.0
54203.0,STARLINK-5247,PAYLOAD,2023-02-01 09:38:36,15.08844867,0.0001633,53.2166,36.9569,94.6134,265.5045,5.6547e-05,6.12e-06,0.0,0 STARLINK-5247,1 54203U 22141AY  23032.40181622  .00000612  00000-0  56547-4 0  9998,2 54203  53.2166  36.9569 0001633  94.6134 265.5045 15.08844867 15292,6917.866,95.437,540.86,538.601,0.0
54203.0,STARLINK-5247,PAYLOAD,2023-02-02 09:29:24,15.08840802,0.0001729,53.2175,32.495,95.7554,264.3635,2.0044e-07,-2.85e-06,0.0,0 STARLINK-5247,1 54203U 22141AY  23033.39542147 -.00000285  00000-0  20044-6 0  9992,2 54203  53.2175  32.4950 0001729  95.7554 264.3635 15.08840802 15210,6917.878,95.438,540.939,538.547,0.0
54203.0,STARLINK-5247,PAYLOAD,2023-02-03 09:20:10,15.08855947,0.0001766,53.2174,28.0348,92.2233,267.8961,-4.0033e-05,-9.26e-06,0.0,0 STARLINK-5247,1 54203U 22141AY  23034.38901245 -.00000926  00000-0 -40033-4 0  9991,2 54203  53.2174  28.0348 0001766  92.2233 267.8961 15.08855947 15595,6917.832,95.437,540.918,538.475,0.0
54203.0,STARLINK-5247,PAYLOAD,2023-02-04 07:35:35,15.08843446,0.0001655,53.2176,23.8712,91.8442,268.274,5.0481e-05,5.16e-06,0.0,0 STARLINK-5247,1 54203U 22141AY  23035.31637746  .00000516  00000-0  50481-4 0  9998,2 54203  53.2176  23.8712 0001655  91.8442 268.2740 15.08843446 15736,6917.87,95.437,540.88,538.59,0.0
54203.0,STARLINK-5247,PAYLOAD,2023-02-05 02:40:13,15.08834958,0.0001642,53.2181,20.3088,92.9209,267.1971,-0.00012732,-2.313e-05,0.0,0 STARLINK-5247,1 54203U 22141AY  23036.11127173 -.00002313  00000-0 -12732-3 0  9990,2 54203  53.2181  20.3088 0001642  92.9209 267.1971 15.08834958 15854,6917.896,95.438,540.897,538.625,0.0
54203.0,STARLINK-5247,PAYLOAD,2023-02-05 09:01:45,15.0884095,0.0001574,53.2169,19.1166,89.2779,270.8393,-6.1268e-05,-1.263e-05,0.0,0 STARLINK-5247,1 54203U 22141AY  23036.37622573 -.00001263  00000-0 -61268-4 0  9994,2 54203  53.2169  19.1166 0001574  89.2779 270.8393 15.08840950 15890,6917.877,95.437,540.831,538.654,0.0
54203.0,STARLINK-5247,PAYLOAD,2023-02-06 07:17:09,15.0884357,0.000152,53.2176,14.9532,88.2146,271.902,9.4136e-05,1.211e-05,0.0,0 STARLINK-5247,1 54203U 22141AY  23037.30358078  .00001211  00000-0  94136-4 0  9995,2 54203  53.2176  14.9532 0001520  88.2146 271.9020 15.08843570 15807,6917.869,95.437,540.786,538.683,0.0
54203.0,STARLINK-5247,PAYLOAD,2023-02-07 02:21:47,15.08825319,0.0001689,53.2181,11.3852,94.4372,265.6813,0.00029386,4.39e-05,0.0,0 STARLINK-5247,1 54203U 22141AY  23038.09846539  .00004390  00000-0  29386-3 0  9991,2 54203  53.2181  11.3852 0001689  94.4372 265.6813 15.08825319 16155,6917.925,95.438,540.959,538.622,0.0
54203.0,STARLINK-5247,PAYLOAD,2023-02-07 08:43:18,15.08859454,0.0001543,53.2173,10.195,93.7363,266.3805,0.00021398,3.121e-05,0.0,0 STARLINK-5247,1 54203U 22141AY  23038.36340767  .00003121  00000-0  21398-3 0  9999,2 54203  53.2173  10.1950 0001543  93.7363 266.3805 15.08859454 16193,6917.821,95.436,540.753,538.619,0.0
54203.0,STARLINK-5247,PAYLOAD,2023-02-08 06:58:43,15.08849766,0.0001713,53.2179,6.0316,81.348,278.7706,-1.1123e-05,-4.65e-06,0.0,0 STARLINK-5247,1 54203U 22141AY  23039.29077943 -.00000465  00000-0 -11123-4 0  9991,2 54203  53.2179   6.0316 0001713  81.3480 278.7706 15.08849766 16339,6917.851,95.437,540.901,538.531,0.0
54203.0,STARLINK-5247,PAYLOAD,2023-02-09 03:38:44,15.08844236,0.0001491,53.2181,2.1631,109.2466,250.8688,-0.00011481,-2.115e-05,0.0,0 STARLINK-5247,1 54203U 22141AY  23040.15190515 -.00002115  00000-0 -11481-3 0  9999,2 54203  53.2181   2.1631 0001491 109.2466 250.8688 15.08844236 16467,6917.867,95.437,540.764,538.701,0.0
54203.0,STARLINK-5247,PAYLOAD,2023-02-09 06:49:30,15.08848149,0.0001561,53.2179,1.5661,110.1571,249.9589,-7.3678e-05,-1.461e-05,0.0,0 STARLINK-5247,1 54203U 22141AY  23040.28438081 -.00001461  00000-0 -73678-4 0  9996,2 54203  53.2179   1.5661 0001561 110.1571 249.9589 15.08848149 16259,6917.855,95.437,540.8,538.641,0.0
54203.0,STARLINK-5247,PAYLOAD,2023-02-09 14:46:26,15.08845464,0.0001284,53.2182,0.0839,90.2443,269.8697,-9.7526e-05,-1.84e-05,0.0,0 STARLINK-5247,1 54203U 22141AY  23040.61558307 -.00001840  00000-0 -97526-4 0  9996,2 54203  53.2182   0.0839 0001284  90.2443 269.8697 15.08845464 16306,6917.864,95.437,540.617,538.84,0.0
